0 SL-8 DEB
1 05225U 70102D   13282.89512752  .00000332  00000-0  29268-3 0  6927
2 05225 074.0231 096.6271 0017978 357.9889 124.7357 13.89051999163345
0 SL-8 DEB
1 05225U 70102D   13285.46939712  .00000296  00000-0  26322-3 0  6930
2 05225 074.0234 092.2500 0018087 353.1965 037.4427 13.89053773163700
0 SL-8 DEB
1 05225U 70102D   13287.78015225  .00000338  00000-0  29793-3 0  6944
2 05225 074.0239 088.3210 0018146 348.5522 072.7971 13.89055848164029
0 SL-8 DEB
1 05225U 70102D   13289.88099325  .00000367  00000-0  32130-3 0  6952
2 05225 074.0244 084.7491 0018232 344.4419 138.3424 13.89057258164313
0 SL-8 DEB
1 05225U 70102D   13292.38245338  .00000389  00000-0  33967-3 0  6962
2 05225 074.0248 080.4963 0018331 339.6101 047.1902 13.89059229164664
0 SL-8 DEB
1 05225U 70102D   13294.85653319  .00000474  00000-0  40975-3 0  6971
2 05225 074.0249 076.2900 0018440 334.7642 179.2058 13.89061187165000
